NORAD_CAT_ID,OBJECT_NAME,OBJECT_TYPE,EPOCH,MEAN_MOTION,ECCENTRICITY,INCLINATION,RA_OF_ASC_NODE,ARG_OF_PERICENTER,MEAN_ANOMALY,BSTAR,MEAN_MOTION_DOT,MEAN_MOTION_DDOT,TLE_LINE0,TLE_LINE1,TLE_LINE2,SEMIMAJOR_AXIS,PERIOD,APOGEE,PERIGEE,DECAYED
51861.0,STARLINK-3562,PAYLOAD,2022-04-28 14:00:01,15.49900175,0.0001665999999999,53.2137,229.1677,43.42100000000001,85.9433,6.7732e-05,3.396e-05,0.0,0 STARLINK-3562,1 51861U 22022K   22118.58334491  .00003396  00000-0  67732-4 0  9990,2 51861  53.2137 229.1677 0001666  43.4210  85.9433 15.49900175  3704,6795.155,92.909,418.152,415.888,0.0
51861.0,STARLINK-3562,PAYLOAD,2022-04-28 20:00:01,15.49936873,0.0001686,53.2134,227.9729,37.2604,47.8076,-0.0010213,-0.00058096,0.0,0 STARLINK-3562,1 51861U 22022K   22118.83334491 -.00058096  00000-0 -10213-2 0  9997,2 51861  53.2134 227.9729 0001686  37.2604  47.8076 15.49936873 10033,6795.0480000000025,92.907,418.0580000000001,415.767,0.0
51861.0,STARLINK-3562,PAYLOAD,2022-04-29 14:00:01,15.499212900000002,0.0001675,53.2134,224.3886,39.5887,272.5699,-0.0014826,-0.00083813,0.0,0 STARLINK-3562,1 51861U 22022K   22119.58334491 -.00083813  00000-0 -14826-2 0  9999,2 51861  53.2134 224.3886 0001675  39.5887 272.5699 15.49921290 10152,6795.093000000003,92.908,418.096,415.82,0.0
51861.0,STARLINK-3562,PAYLOAD,2022-04-29 22:00:00,15.498706699999998,0.0001718,53.2131,222.7948,41.9614,331.1182,-0.00014736,-8.802e-05,0.0,0 STARLINK-3562,1 51861U 22022K   22119.91667824 -.00008802  00000-0 -14736-3 0  9991,2 51861  53.2131 222.7948 0001718  41.9614 331.1182 15.49870670  3676,6795.241,92.911,418.273,415.939,0.0
51861.0,STARLINK-3562,PAYLOAD,2022-04-30 06:00:00,15.49861118,0.0001585999999999,53.2135,221.2004,48.7398,25.2302,0.00093682,0.00053035,0.0,0 STARLINK-3562,1 51861U 22022K   22120.25001157  .00053035  00000-0  93682-3 0  9994,2 51861  53.2135 221.2004 0001586  48.7398  25.2302 15.49861118 10258,6795.269,92.912,418.212,416.056,0.0
51861.0,STARLINK-3562,PAYLOAD,2022-04-30 12:00:00,15.49904933,0.0001698,53.2135,220.0073,42.1227,347.5123,-0.00077171,-0.00044037,0.0,0 STARLINK-3562,1 51861U 22022K   22120.50001157 -.00044037  00000-0 -77171-3 0  9991,2 51861  53.2135 220.0073 0001698  42.1227 347.5123 15.49904933 10292,6795.141,92.909,418.16,415.852,0.0
51861.0,STARLINK-3562,PAYLOAD,2022-04-30 14:00:01,15.49905404,0.0001743,53.2135,219.6094,40.6269,94.2384,-0.0010415,-0.00059162,0.0,0 STARLINK-3562,1 51861U 22022K   22120.58334491 -.00059162  00000-0 -10415-2 0  9991,2 51861  53.2135 219.6094 0001743  40.6269  94.2384 15.49905404  3650,6795.14,92.909,418.189,415.82,0.0
51861.0,STARLINK-3562,PAYLOAD,2022-04-30 22:00:00,15.49879381,0.0001617,53.2135,218.0155,34.4583,161.3307,-0.00056087,-0.00032148,0.0,0 STARLINK-3562,1 51861U 22022K   22120.91667824 -.00032148  00000-0 -56087-3 0  9998,2 51861  53.2135 218.0155 0001617  34.4583 161.3307 15.49879381  3690,6795.215999999999,92.91,418.179,415.982,0.0
51861.0,STARLINK-3562,PAYLOAD,2022-05-01 06:00:00,15.49853897,0.0001534,53.2139,216.4212,40.9738,215.6966,0.00080726,0.00045582,0.0,0 STARLINK-3562,1 51861U 22022K   22121.25001157  .00045582  00000-0  80726-3 0  9998,2 51861  53.2139 216.4212 0001534  40.9738 215.6966 15.49853897 10418,6795.29,92.912,418.197,416.11300000000006,0.0
51861.0,STARLINK-3562,PAYLOAD,2022-05-01 14:00:01,15.49873982,0.0001836,53.2139,214.8303,37.145,280.4167,5.2161e-05,2.508e-05,0.0,0 STARLINK-3562,1 51861U 22022K   22121.58334491  .00002508  00000-0  52161-4 0  9998,2 51861  53.2139 214.8303 0001836  37.1450 280.4167 15.49873982  3664,6795.231,92.911,418.344,415.849,0.0
51861.0,STARLINK-3562,PAYLOAD,2022-05-01 22:00:01,15.49891694,0.0001854,53.2137,213.2362,39.2132,339.3188,-0.0015488,-0.00087406,0.0,0 STARLINK-3562,1 51861U 22022K   22121.91668981 -.00087406  00000-0 -15488-2 0  9990,2 51861  53.2137 213.2362 0001854  39.2132 339.3188 15.49891694 10519,6795.18,92.91,418.304,415.785,0.0
51861.0,STARLINK-3562,PAYLOAD,2022-05-02 06:00:00,15.49837573,0.0001877,53.2138,211.6423,46.5759,32.769,0.00051902,0.00029066,0.0,0 STARLINK-3562,1 51861U 22022K   22122.25001157  .00029066  00000-0  51902-3 0  9992,2 51861  53.2138 211.6423 0001877  46.5759  32.7690 15.49837573 10564,6795.3380000000025,92.913,418.478,415.927,0.0
51861.0,STARLINK-3562,PAYLOAD,2022-05-02 14:00:01,15.498587900000002,0.0002125,53.2151,210.0485,40.0261,100.1854,-0.00037594,-0.00021711,0.0,0 STARLINK-3562,1 51861U 22022K   22122.58334491 -.00021711  00000-0 -37594-3 0  9990,2 51861  53.2151 210.0485 0002125  40.0261 100.1854 15.49858790  3674,6795.276,92.912,418.585,415.697,0.0
51861.0,STARLINK-3562,PAYLOAD,2022-05-02 22:00:01,15.49867177,0.000185,53.2161,208.4501,40.53,160.6262,-0.0069494,-0.00376305,0.0,0 STARLINK-3562,1 51861U 22022K   22122.91668981 -.00376305  00000-0 -69494-2 0  9996,2 51861  53.2161 208.4501 0001850  40.5300 160.6262 15.49867177 10679,6795.251,92.911,418.37300000000016,415.859,0.0
51861.0,STARLINK-3562,PAYLOAD,2022-05-03 04:00:00,15.49776984,0.0001776999999999,53.2171,207.2511,39.0996,117.5561,-0.013807,-0.00722835,0.0,0 STARLINK-3562,1 51861U 22022K   22123.16667824 -.00722835  00000-0 -13807-1 0  9998,2 51861  53.2171 207.2511 0001777  39.0996 117.5561 15.49776984 10713,6795.515,92.917,418.587,416.172,0.0
51861.0,STARLINK-3562,PAYLOAD,2022-05-03 14:00:01,15.49139396,0.0001796,53.2175,205.2601,33.9459,288.2038,-0.014135,-0.00723419,0.0,0 STARLINK-3562,1 51861U 22022K   22123.58334491 -.00723419  00000-0 -14135-1 0  9999,2 51861  53.2175 205.2601 0001796  33.9459 288.2038 15.49139396  3686,6797.379,92.955,420.465,418.024,0.0
51861.0,STARLINK-3562,PAYLOAD,2022-05-03 22:00:00,15.48629002,0.0001534,53.2174,203.666,38.0454,343.8113,-0.014377,-0.00722673,0.0,0 STARLINK-3562,1 51861U 22022K   22123.91667824 -.00722673  00000-0 -14377-1 0  9994,2 51861  53.2174 203.6660 0001534  38.0454 343.8113 15.48629002  3671,6798.873000000001,92.985,421.781,419.695,0.0
51861.0,STARLINK-3562,PAYLOAD,2022-05-04 06:00:02,15.48014759,0.0001779,53.2164,202.0748,36.2207,44.8519,-0.011751,-0.00580597,0.0,0 STARLINK-3562,1 51861U 22022K   22124.25002315 -.00580597  00000-0 -11751-1 0  9990,2 51861  53.2164 202.0748 0001779  36.2207  44.8519 15.48014759 10872,6800.670999999999,93.022,423.746,421.326,0.0
51861.0,STARLINK-3562,PAYLOAD,2022-05-04 12:00:00,15.47737608,0.0001829,53.2173,200.8827,30.7321,4.1346,-0.014872,-0.00724417,0.0,0 STARLINK-3562,1 51861U 22022K   22124.50001157 -.00724417  00000-0 -14872-1 0  9999,2 51861  53.2173 200.8827 0001829  30.7321   4.1346 15.47737608 10914,6801.483,93.039,424.592,422.104,0.0
51861.0,STARLINK-3562,PAYLOAD,2022-05-04 14:00:01,15.47607376,0.0002008,53.2173,200.4856,32.2996,107.1305,-0.014828,-0.00719415,0.0,0 STARLINK-3562,1 51861U 22022K   22124.58334491 -.00719415  00000-0 -14828-1 0  9990,2 51861  53.2173 200.4856 0002008  32.2996 107.1305 15.47607376  3679,6801.865,93.047,425.095,422.364,0.0
51861.0,STARLINK-3562,PAYLOAD,2022-05-04 22:00:01,15.47099665,0.0001785,53.2174,198.8949,39.1304,158.2319,-0.015179,-0.00723163,0.0,0 STARLINK-3562,1 51861U 22022K   22124.91668981 -.00723163  00000-0 -15179-1 0  9996,2 51861  53.2174 198.8949 0001785  39.1304 158.2319 15.47099665  3671,6803.353,93.077,426.432,424.003,0.0
51861.0,STARLINK-3562,PAYLOAD,2022-05-05 14:00:01,15.46078497,0.0002123,53.2176,195.722,25.7197,285.4745,-0.015676,-0.00721042,0.0,0 STARLINK-3562,1 51861U 22022K   22125.58334491 -.00721042  00000-0 -15676-1 0  9992,2 51861  53.2176 195.7220 0002123  25.7197 285.4745 15.46078497 11088,6806.348000000001,93.139,429.658,426.768,0.0
51861.0,STARLINK-3562,PAYLOAD,2022-05-05 22:00:00,15.45497839,0.000166,53.2167,194.1365,35.3043,331.9535,-0.01364,-0.0061472,0.0,0 STARLINK-3562,1 51861U 22022K   22125.91667824 -.00614720  00000-0 -13640-1 0  9991,2 51861  53.2167 194.1365 0001660  35.3043 331.9535 15.45497839  3633,6808.053000000001,93.174,431.048,428.788,0.0
51861.0,STARLINK-3562,PAYLOAD,2022-05-06 14:00:01,15.44545963,0.0001921,53.2176,190.9694,32.3829,85.0619,-0.016421,-0.00716795,0.0,0 STARLINK-3562,1 51861U 22022K   22126.58334491 -.00716795  00000-0 -16421-1 0  9991,2 51861  53.2176 190.9694 0001921  32.3829  85.0619 15.44545963 11248,6810.849,93.231,434.023,431.406,0.0
51861.0,STARLINK-3562,PAYLOAD,2022-05-07 14:00:01,15.430162300000005,0.0001665999999999,53.2175,186.2277,42.7085,235.4704,-0.017286,-0.00716252,0.0,0 STARLINK-3562,1 51861U 22022K   22127.58334491 -.00716252  00000-0 -17286-1 0  9990,2 51861  53.2175 186.2277 0001666  42.7085 235.4704 15.43016230 11398,6815.35,93.324,438.351,436.08,0.0
51861.0,STARLINK-3562,PAYLOAD,2022-05-07 22:00:00,15.425090300000004,0.0001561999999999,53.2174,184.6478,40.1818,290.3499,-0.01772,-0.00721326,0.0,0 STARLINK-3562,1 51861U 22022K   22127.91667824 -.00721326  00000-0 -17720-1 0  9997,2 51861  53.2174 184.6478 0001562  40.1818 290.3499 15.42509030  3669,6816.844,93.354,439.774,437.644,0.0
51861.0,STARLINK-3562,PAYLOAD,2022-05-08 14:00:01,15.41485279,0.0001561,53.2173,181.497,40.254,33.1448,-0.018166,-0.00714956,0.0,0 STARLINK-3562,1 51861U 22022K   22128.58334491 -.00714956  00000-0 -18166-1 0  9998,2 51861  53.2173 181.4970 0001561  40.2540  33.1448 15.41485279 11542,6819.861999999999,93.416,442.792,440.662,0.0
51861.0,STARLINK-3562,PAYLOAD,2022-05-08 22:00:00,15.40976579,0.0001713,53.2174,179.9208,36.957,86.9564,-0.018523,-0.00716596,0.0,0 STARLINK-3562,1 51861U 22022K   22128.91667824 -.00716596  00000-0 -18523-1 0  9993,2 51861  53.2174 179.9208 0001713  36.9570  86.9564 15.40976579  3669,6821.363,93.447,444.396,442.059,0.0
51861.0,STARLINK-3562,PAYLOAD,2022-05-09 14:00:01,15.39953868,0.0001618,53.2173,176.7771,48.3999,174.7676,-0.019021,-0.00711613,0.0,0 STARLINK-3562,1 51861U 22022K   22129.58335648 -.00711613  00000-0 -19021-1 0  9992,2 51861  53.2173 176.7771 0001618  48.3999 174.7676 15.39953868 11702,6824.3830000000025,93.509,447.352,445.143,0.0
